{"type":"FeatureCollection","features":[{"type":"Feature","properties":{"municipio":"a3f9bb12-7178-4d4b-9f43-244c00fb2e1e","title":"DF - BRASILIA","name":"DF - BRASILIA","tipo":"Munic\u00edpio","url":"\/dashboard\/details-assets\/a3f9bb12-7178-4d4b-9f43-244c00fb2e1e"},"geometry":{"type":"Point","coordinates":[-47.882166,-15.794229]}},{"type":"Feature","properties":{"municipio":"850d86f8-fc95-4aaf-bd99-7dd4319e68ff","title":"TO - GURUPI","name":"TO - GURUPI","tipo":"Munic\u00edpio","url":"\/dashboard\/details-assets\/850d86f8-fc95-4aaf-bd99-7dd4319e68ff"},"geometry":{"type":"Point","coordinates":[-49.120839,-11.735005]}},{"type":"Feature","properties":{"municipio":"bb439686-38e3-4bbe-8296-f7e392bd0a7b","title":"TO - PALMAS","name":"TO - PALMAS","tipo":"Munic\u00edpio","url":"\/dashboard\/details-assets\/bb439686-38e3-4bbe-8296-f7e392bd0a7b"},"geometry":{"type":"Point","coordinates":[-48.317036,-10.230299]}},{"type":"Feature","properties":{"municipio":"d831876d-c714-4d51-a8f9-b4deeead6dfb","title":"TO - ARAGUAINA","name":"TO - ARAGUAINA","tipo":"Munic\u00edpio","url":"\/dashboard\/details-assets\/d831876d-c714-4d51-a8f9-b4deeead6dfb"},"geometry":{"type":"Point","coordinates":[-48.287407,-7.210941]}},{"type":"Feature","properties":{"municipio":"ef2590a8-d530-4943-a51f-ab51f8bc3eb9","title":"SE - ARACAJU","name":"SE - ARACAJU","tipo":"Munic\u00edpio","url":"\/dashboard\/details-assets\/ef2590a8-d530-4943-a51f-ab51f8bc3eb9"},"geometry":{"type":"Point","coordinates":[-37.073082,-10.947247]}},{"type":"Feature","properties":{"municipio":"def7222a-0433-4c34-8d1c-eb04b3311287","title":"SE - ITABAIANA","name":"SE - ITABAIANA","tipo":"Munic\u00edpio","url":"\/dashboard\/details-assets\/def7222a-0433-4c34-8d1c-eb04b3311287"},"geometry":{"type":"Point","coordinates":[-37.426861,-10.685716]}},{"type":"Feature","properties":{"municipio":"5bd8b9e6-b8d3-437c-becf-5e4f2d9b1c28","title":"SP - VALINHOS","name":"SP - VALINHOS","tipo":"Munic\u00edpio","url":"\/dashboard\/details-assets\/5bd8b9e6-b8d3-437c-becf-5e4f2d9b1c28"},"geometry":{"type":"Point","coordinates":[-46.99663,-22.971244]}},{"type":"Feature","properties":{"municipio":"f88edc95-8051-4e47-afea-608dabd96f8f","title":"SP - VINHEDO","name":"SP - VINHEDO","tipo":"Munic\u00edpio","url":"\/dashboard\/details-assets\/f88edc95-8051-4e47-afea-608dabd96f8f"},"geometry":{"type":"Point","coordinates":[-46.976476,-23.030538]}},{"type":"Feature","properties":{"municipio":"dcbf9c6e-770a-41f1-bbd4-71e16492438b","title":"SP - TABOAO DA SERRA","name":"SP - TABOAO DA SERRA","tipo":"Munic\u00edpio","url":"\/dashboard\/details-assets\/dcbf9c6e-770a-41f1-bbd4-71e16492438b"},"geometry":{"type":"Point","coordinates":[-46.78578,-23.623328]}},{"type":"Feature","properties":{"municipio":"cd22fb61-3325-429f-abe0-96cf7a177f1f","title":"SP - SAO PAULO","name":"SP - SAO PAULO","tipo":"Munic\u00edpio","url":"\/dashboard\/details-assets\/cd22fb61-3325-429f-abe0-96cf7a177f1f"},"geometry":{"type":"Point","coordinates":[-46.570383,-23.567386]}},{"type":"Feature","properties":{"municipio":"2382daee-f724-41bf-bcd2-463ec554c225","title":"SP - SOROCABA","name":"SP - SOROCABA","tipo":"Munic\u00edpio","url":"\/dashboard\/details-assets\/2382daee-f724-41bf-bcd2-463ec554c225"},"geometry":{"type":"Point","coordinates":[-47.457853,-23.499323]}},{"type":"Feature","properties":{"municipio":"39ab423c-d811-4096-8087-145d2b7c86bb","title":"SP - SAO JOSE DOS CAMPOS","name":"SP - SAO JOSE DOS CAMPOS","tipo":"Munic\u00edpio","url":"\/dashboard\/details-assets\/39ab423c-d811-4096-8087-145d2b7c86bb"},"geometry":{"type":"Point","coordinates":[-45.899405,-23.23021]}},{"type":"Feature","properties":{"municipio":"a651608a-dfe1-4ec6-892d-3052c6fc91f1","title":"SP - SAO JOSE DO RIO PRETO","name":"SP - SAO JOSE DO RIO PRETO","tipo":"Munic\u00edpio","url":"\/dashboard\/details-assets\/a651608a-dfe1-4ec6-892d-3052c6fc91f1"},"geometry":{"type":"Point","coordinates":[-49.376227,-20.811761]}},{"type":"Feature","properties":{"municipio":"032985f4-a4eb-4052-a4c1-d51f368fdd0c","title":"SP - SAO CAETANO DO SUL","name":"SP - SAO CAETANO DO SUL","tipo":"Munic\u00edpio","url":"\/dashboard\/details-assets\/032985f4-a4eb-4052-a4c1-d51f368fdd0c"},"geometry":{"type":"Point","coordinates":[-46.571515,-23.614705]}},{"type":"Feature","properties":{"municipio":"7a957725-5020-4d79-9aca-83e8b89902b2","title":"SP - SANTOS","name":"SP - SANTOS","tipo":"Munic\u00edpio","url":"\/dashboard\/details-assets\/7a957725-5020-4d79-9aca-83e8b89902b2"},"geometry":{"type":"Point","coordinates":[-46.331371,-23.933737]}},{"type":"Feature","properties":{"municipio":"0a4a05a5-3fb7-4d28-870d-8fbaf2bc88b3","title":"SP - SAO BERNARDO DO CAMPO","name":"SP - SAO BERNARDO DO CAMPO","tipo":"Munic\u00edpio","url":"\/dashboard\/details-assets\/0a4a05a5-3fb7-4d28-870d-8fbaf2bc88b3"},"geometry":{"type":"Point","coordinates":[-46.550257,-23.710304]}},{"type":"Feature","properties":{"municipio":"96f6b2a6-a876-4fb7-87c1-b59cef5e6f17","title":"SP - SANTO ANDRE","name":"SP - SANTO ANDRE","tipo":"Munic\u00edpio","url":"\/dashboard\/details-assets\/96f6b2a6-a876-4fb7-87c1-b59cef5e6f17"},"geometry":{"type":"Point","coordinates":[-46.530874,-23.65751]}},{"type":"Feature","properties":{"municipio":"36c6a13f-6544-4b12-ae03-478ec524c763","title":"SP - PRESIDENTE PRUDENTE","name":"SP - PRESIDENTE PRUDENTE","tipo":"Munic\u00edpio","url":"\/dashboard\/details-assets\/36c6a13f-6544-4b12-ae03-478ec524c763"},"geometry":{"type":"Point","coordinates":[-51.386766,-22.122743]}},{"type":"Feature","properties":{"municipio":"1b5dee99-cd09-4ab1-96b1-a73744582174","title":"SP - RIBEIRAO PRETO","name":"SP - RIBEIRAO PRETO","tipo":"Munic\u00edpio","url":"\/dashboard\/details-assets\/1b5dee99-cd09-4ab1-96b1-a73744582174"},"geometry":{"type":"Point","coordinates":[-47.805476,-21.184834]}},{"type":"Feature","properties":{"municipio":"4ff0bcb8-89cc-46c8-86a4-672d86ae1e1a","title":"SP - PIRACICABA","name":"SP - PIRACICABA","tipo":"Munic\u00edpio","url":"\/dashboard\/details-assets\/4ff0bcb8-89cc-46c8-86a4-672d86ae1e1a"},"geometry":{"type":"Point","coordinates":[-47.646846,-22.723722]}},{"type":"Feature","properties":{"municipio":"98376579-b0e7-4f0e-a0b0-cf3c78b7b848","title":"SP - OSASCO","name":"SP - OSASCO","tipo":"Munic\u00edpio","url":"\/dashboard\/details-assets\/98376579-b0e7-4f0e-a0b0-cf3c78b7b848"},"geometry":{"type":"Point","coordinates":[-46.78881,-23.533612]}},{"type":"Feature","properties":{"municipio":"c519b877-6b8f-4b40-adc8-61bfaabd6710","title":"SP - PAULINIA","name":"SP - PAULINIA","tipo":"Munic\u00edpio","url":"\/dashboard\/details-assets\/c519b877-6b8f-4b40-adc8-61bfaabd6710"},"geometry":{"type":"Point","coordinates":[-47.154386,-22.759922]}},{"type":"Feature","properties":{"municipio":"442bdfa1-54cc-4e83-afd0-4f2fe90488ff","title":"SP - MOGI DAS CRUZES","name":"SP - MOGI DAS CRUZES","tipo":"Munic\u00edpio","url":"\/dashboard\/details-assets\/442bdfa1-54cc-4e83-afd0-4f2fe90488ff"},"geometry":{"type":"Point","coordinates":[-46.19676,-23.522706]}},{"type":"Feature","properties":{"municipio":"ea01969d-f3b7-46e9-9dcd-f7bd43339b50","title":"SP - MAUA","name":"SP - MAUA","tipo":"Munic\u00edpio","url":"\/dashboard\/details-assets\/ea01969d-f3b7-46e9-9dcd-f7bd43339b50"},"geometry":{"type":"Point","coordinates":[-46.461709,-23.668163]}},{"type":"Feature","properties":{"municipio":"05cad1e7-17c3-431a-b1c5-8c659d4506f5","title":"SP - MARILIA","name":"SP - MARILIA","tipo":"Munic\u00edpio","url":"\/dashboard\/details-assets\/05cad1e7-17c3-431a-b1c5-8c659d4506f5"},"geometry":{"type":"Point","coordinates":[-49.950529,-22.217585]}},{"type":"Feature","properties":{"municipio":"da265225-d9d5-42a9-85fb-32bc9dabe7b9","title":"SP - JACAREI","name":"SP - JACAREI","tipo":"Munic\u00edpio","url":"\/dashboard\/details-assets\/da265225-d9d5-42a9-85fb-32bc9dabe7b9"},"geometry":{"type":"Point","coordinates":[-45.969593,-23.30488]}},{"type":"Feature","properties":{"municipio":"64e001ea-f1e6-47af-afe9-50780a213c14","title":"SP - ITAPEVA","name":"SP - ITAPEVA","tipo":"Munic\u00edpio","url":"\/dashboard\/details-assets\/64e001ea-f1e6-47af-afe9-50780a213c14"},"geometry":{"type":"Point","coordinates":[-48.877389,-23.983438]}},{"type":"Feature","properties":{"municipio":"46e8e7a2-db5d-4a20-b2bb-e207a9fe97c5","title":"SP - HORTOLANDIA","name":"SP - HORTOLANDIA","tipo":"Munic\u00edpio","url":"\/dashboard\/details-assets\/46e8e7a2-db5d-4a20-b2bb-e207a9fe97c5"},"geometry":{"type":"Point","coordinates":[-47.221097,-22.858395]}},{"type":"Feature","properties":{"municipio":"3220b843-fe7e-431b-84f7-5b67b1525d00","title":"SP - GUARULHOS","name":"SP - GUARULHOS","tipo":"Munic\u00edpio","url":"\/dashboard\/details-assets\/3220b843-fe7e-431b-84f7-5b67b1525d00"},"geometry":{"type":"Point","coordinates":[-46.531084,-23.468506]}},{"type":"Feature","properties":{"municipio":"29260588-ac3b-43aa-bb27-4737fba9952a","title":"SP - CAMPINAS","name":"SP - CAMPINAS","tipo":"Munic\u00edpio","url":"\/dashboard\/details-assets\/29260588-ac3b-43aa-bb27-4737fba9952a"},"geometry":{"type":"Point","coordinates":[-47.060156,-22.907342]}},{"type":"Feature","properties":{"municipio":"fb740ebc-d316-4dd7-bee1-f497d91814f8","title":"SP - CACAPAVA","name":"SP - CACAPAVA","tipo":"Munic\u00edpio","url":"\/dashboard\/details-assets\/fb740ebc-d316-4dd7-bee1-f497d91814f8"},"geometry":{"type":"Point","coordinates":[-45.70773,-23.100664]}},{"type":"Feature","properties":{"municipio":"908489a0-9656-4d1d-bd34-334424b13dc4","title":"SP - BAURU","name":"SP - BAURU","tipo":"Munic\u00edpio","url":"\/dashboard\/details-assets\/908489a0-9656-4d1d-bd34-334424b13dc4"},"geometry":{"type":"Point","coordinates":[-49.083001,-22.325122]}},{"type":"Feature","properties":{"municipio":"b9321ae6-c400-4dcd-bf5b-9908c8c030ea","title":"SP - ARACATUBA","name":"SP - ARACATUBA","tipo":"Munic\u00edpio","url":"\/dashboard\/details-assets\/b9321ae6-c400-4dcd-bf5b-9908c8c030ea"},"geometry":{"type":"Point","coordinates":[-50.439226,-21.205476]}},{"type":"Feature","properties":{"municipio":"4d5fb6d4-0c5f-4616-a0ed-4146d1cda48c","title":"SC - SAO JOSE","name":"SC - SAO JOSE","tipo":"Munic\u00edpio","url":"\/dashboard\/details-assets\/4d5fb6d4-0c5f-4616-a0ed-4146d1cda48c"},"geometry":{"type":"Point","coordinates":[-48.642802,-27.610088]}},{"type":"Feature","properties":{"municipio":"694736fc-1e76-4db0-a02a-cf9f7bfa86f5","title":"SC - LAGES","name":"SC - LAGES","tipo":"Munic\u00edpio","url":"\/dashboard\/details-assets\/694736fc-1e76-4db0-a02a-cf9f7bfa86f5"},"geometry":{"type":"Point","coordinates":[-50.330222,-27.817259]}},{"type":"Feature","properties":{"municipio":"3adbc534-606a-4bfd-9763-f3ab8a330a56","title":"SC - JOINVILLE","name":"SC - JOINVILLE","tipo":"Munic\u00edpio","url":"\/dashboard\/details-assets\/3adbc534-606a-4bfd-9763-f3ab8a330a56"},"geometry":{"type":"Point","coordinates":[-48.849409,-26.304518]}},{"type":"Feature","properties":{"municipio":"90f6113e-8978-428f-bdc0-c7d07fce006c","title":"SC - FLORIANOPOLIS","name":"SC - FLORIANOPOLIS","tipo":"Munic\u00edpio","url":"\/dashboard\/details-assets\/90f6113e-8978-428f-bdc0-c7d07fce006c"},"geometry":{"type":"Point","coordinates":[-48.547637,-27.587796]}},{"type":"Feature","properties":{"municipio":"52d7db18-abc5-419b-a0b6-8fc2354bfbe8","title":"SC - CRICIUMA","name":"SC - CRICIUMA","tipo":"Munic\u00edpio","url":"\/dashboard\/details-assets\/52d7db18-abc5-419b-a0b6-8fc2354bfbe8"},"geometry":{"type":"Point","coordinates":[-49.36594,-28.673572]}},{"type":"Feature","properties":{"municipio":"d5b2d6b2-90b9-4b53-bc07-18be9d7a3747","title":"SC - CHAPECO","name":"SC - CHAPECO","tipo":"Munic\u00edpio","url":"\/dashboard\/details-assets\/d5b2d6b2-90b9-4b53-bc07-18be9d7a3747"},"geometry":{"type":"Point","coordinates":[-52.615699,-27.100934]}},{"type":"Feature","properties":{"municipio":"f3f66ba0-40ba-4fa8-9506-94de3da7aa2e","title":"SC - CACADOR","name":"SC - CACADOR","tipo":"Munic\u00edpio","url":"\/dashboard\/details-assets\/f3f66ba0-40ba-4fa8-9506-94de3da7aa2e"},"geometry":{"type":"Point","coordinates":[-51.019035,-26.775348]}},{"type":"Feature","properties":{"municipio":"b9f727bf-cc9a-4300-aab9-7aea57d98d68","title":"SC - BLUMENAU","name":"SC - BLUMENAU","tipo":"Munic\u00edpio","url":"\/dashboard\/details-assets\/b9f727bf-cc9a-4300-aab9-7aea57d98d68"},"geometry":{"type":"Point","coordinates":[-49.057631,-26.916108]}},{"type":"Feature","properties":{"municipio":"779415d1-b470-478b-9faf-bf8cd671cf52","title":"RR - RORAINOPOLIS","name":"RR - RORAINOPOLIS","tipo":"Munic\u00edpio","url":"\/dashboard\/details-assets\/779415d1-b470-478b-9faf-bf8cd671cf52"},"geometry":{"type":"Point","coordinates":[-60.42506,0.937195]}},{"type":"Feature","properties":{"municipio":"0bccbd25-28a0-4eef-915d-047c6aea97c8","title":"RR - BOA VISTA","name":"RR - BOA VISTA","tipo":"Munic\u00edpio","url":"\/dashboard\/details-assets\/0bccbd25-28a0-4eef-915d-047c6aea97c8"},"geometry":{"type":"Point","coordinates":[-60.670533,2.816682]}},{"type":"Feature","properties":{"municipio":"7b1500d5-567c-4b34-8862-2131ebc222cc","title":"RO - VILHENA","name":"RO - VILHENA","tipo":"Munic\u00edpio","url":"\/dashboard\/details-assets\/7b1500d5-567c-4b34-8862-2131ebc222cc"},"geometry":{"type":"Point","coordinates":[-60.138584,-12.741373]}},{"type":"Feature","properties":{"municipio":"b7a7ef40-025d-4da0-8ede-998e27fd7785","title":"RO - JI-PARANA","name":"RO - JI-PARANA","tipo":"Munic\u00edpio","url":"\/dashboard\/details-assets\/b7a7ef40-025d-4da0-8ede-998e27fd7785"},"geometry":{"type":"Point","coordinates":[-61.945095,-10.882051]}},{"type":"Feature","properties":{"municipio":"30fd312a-8178-428b-ae69-e3ff628c9a8c","title":"RO - PORTO VELHO","name":"RO - PORTO VELHO","tipo":"Munic\u00edpio","url":"\/dashboard\/details-assets\/30fd312a-8178-428b-ae69-e3ff628c9a8c"},"geometry":{"type":"Point","coordinates":[-63.831446,-8.768892]}},{"type":"Feature","properties":{"municipio":"69bbb1f5-b527-4666-ba13-89f8de17a76e","title":"RO - ARIQUEMES","name":"RO - ARIQUEMES","tipo":"Munic\u00edpio","url":"\/dashboard\/details-assets\/69bbb1f5-b527-4666-ba13-89f8de17a76e"},"geometry":{"type":"Point","coordinates":[-63.033269,-9.908463]}},{"type":"Feature","properties":{"municipio":"27f9c726-be98-4cee-a933-476ae556eacb","title":"RS - SANTO ANGELO","name":"RS - SANTO ANGELO","tipo":"Munic\u00edpio","url":"\/dashboard\/details-assets\/27f9c726-be98-4cee-a933-476ae556eacb"},"geometry":{"type":"Point","coordinates":[-54.264143,-28.301938]}},{"type":"Feature","properties":{"municipio":"9448479f-7f1d-45af-a4c3-b389fefb59ba","title":"RS - URUGUAIANA","name":"RS - URUGUAIANA","tipo":"Munic\u00edpio","url":"\/dashboard\/details-assets\/9448479f-7f1d-45af-a4c3-b389fefb59ba"},"geometry":{"type":"Point","coordinates":[-57.085843,-29.761912]}},{"type":"Feature","properties":{"municipio":"53bf68cb-9ca9-40bb-9424-fb1843c58932","title":"RS - SANTA MARIA","name":"RS - SANTA MARIA","tipo":"Munic\u00edpio","url":"\/dashboard\/details-assets\/53bf68cb-9ca9-40bb-9424-fb1843c58932"},"geometry":{"type":"Point","coordinates":[-53.809876,-29.690439]}},{"type":"Feature","properties":{"municipio":"702e9b73-92e2-42cc-9c90-96b42f9d1edc","title":"RS - PORTO ALEGRE","name":"RS - PORTO ALEGRE","tipo":"Munic\u00edpio","url":"\/dashboard\/details-assets\/702e9b73-92e2-42cc-9c90-96b42f9d1edc"},"geometry":{"type":"Point","coordinates":[-51.217658,-30.034647]}},{"type":"Feature","properties":{"municipio":"3c9548e9-ad5d-4667-b301-b29fa119dffb","title":"RS - SANTA CRUZ DO SUL","name":"RS - SANTA CRUZ DO SUL","tipo":"Munic\u00edpio","url":"\/dashboard\/details-assets\/3c9548e9-ad5d-4667-b301-b29fa119dffb"},"geometry":{"type":"Point","coordinates":[-52.434838,-29.722516]}},{"type":"Feature","properties":{"municipio":"c102b02c-572f-4b17-a20a-d90a161c0fa8","title":"RS - PELOTAS","name":"RS - PELOTAS","tipo":"Munic\u00edpio","url":"\/dashboard\/details-assets\/c102b02c-572f-4b17-a20a-d90a161c0fa8"},"geometry":{"type":"Point","coordinates":[-52.34432,-31.749965]}},{"type":"Feature","properties":{"municipio":"f80b8bbe-622e-4cec-a2b4-50b831f26031","title":"RS - PASSO FUNDO","name":"RS - PASSO FUNDO","tipo":"Munic\u00edpio","url":"\/dashboard\/details-assets\/f80b8bbe-622e-4cec-a2b4-50b831f26031"},"geometry":{"type":"Point","coordinates":[-52.407095,-28.261767]}},{"type":"Feature","properties":{"municipio":"9e6e3ed8-f709-4f27-9b06-c659608f6a90","title":"RS - CAXIAS DO SUL","name":"RS - CAXIAS DO SUL","tipo":"Munic\u00edpio","url":"\/dashboard\/details-assets\/9e6e3ed8-f709-4f27-9b06-c659608f6a90"},"geometry":{"type":"Point","coordinates":[-51.17886,-29.166899]}},{"type":"Feature","properties":{"municipio":"414f61d9-40a5-4e13-b549-bd077feebbf5","title":"RS - FARROUPILHA","name":"RS - FARROUPILHA","tipo":"Munic\u00edpio","url":"\/dashboard\/details-assets\/414f61d9-40a5-4e13-b549-bd077feebbf5"},"geometry":{"type":"Point","coordinates":[-51.34835,-29.223679]}},{"type":"Feature","properties":{"municipio":"fca58151-c710-48d4-ada7-5a05097ae9d5","title":"RS - BAGE","name":"RS - BAGE","tipo":"Munic\u00edpio","url":"\/dashboard\/details-assets\/fca58151-c710-48d4-ada7-5a05097ae9d5"},"geometry":{"type":"Point","coordinates":[-54.107083,-31.330502]}},{"type":"Feature","properties":{"municipio":"c7bfb436-5126-4441-ba53-661a196d69c4","title":"RN - PARNAMIRIM","name":"RN - PARNAMIRIM","tipo":"Munic\u00edpio","url":"\/dashboard\/details-assets\/c7bfb436-5126-4441-ba53-661a196d69c4"},"geometry":{"type":"Point","coordinates":[-39.575787,-8.090138]}},{"type":"Feature","properties":{"municipio":"70292fca-50ae-4a10-9819-17491d124a5c","title":"RN - NATAL","name":"RN - NATAL","tipo":"Munic\u00edpio","url":"\/dashboard\/details-assets\/70292fca-50ae-4a10-9819-17491d124a5c"},"geometry":{"type":"Point","coordinates":[-35.215863,-5.79872]}},{"type":"Feature","properties":{"municipio":"a9e3e53b-806c-4b2a-9a32-9b07ef77fd64","title":"RN - MOSSORO","name":"RN - MOSSORO","tipo":"Munic\u00edpio","url":"\/dashboard\/details-assets\/a9e3e53b-806c-4b2a-9a32-9b07ef77fd64"},"geometry":{"type":"Point","coordinates":[-37.356874,-5.193801]}},{"type":"Feature","properties":{"municipio":"52087968-d859-47c4-a41b-c91308e83dd8","title":"RN - CAICO","name":"RN - CAICO","tipo":"Munic\u00edpio","url":"\/dashboard\/details-assets\/52087968-d859-47c4-a41b-c91308e83dd8"},"geometry":{"type":"Point","coordinates":[-37.096489,-6.459139]}},{"type":"Feature","properties":{"municipio":"ae01c645-9b7c-4ccd-a606-b82e0b1e2733","title":"RJ - VOLTA REDONDA","name":"RJ - VOLTA REDONDA","tipo":"Munic\u00edpio","url":"\/dashboard\/details-assets\/ae01c645-9b7c-4ccd-a606-b82e0b1e2733"},"geometry":{"type":"Point","coordinates":[-44.09473,-22.50776]}},{"type":"Feature","properties":{"municipio":"1d7b52a0-3794-4b94-b765-3a68f3f9cb2e","title":"RJ - SAO JOAO DE MERITI","name":"RJ - SAO JOAO DE MERITI","tipo":"Munic\u00edpio","url":"\/dashboard\/details-assets\/1d7b52a0-3794-4b94-b765-3a68f3f9cb2e"},"geometry":{"type":"Point","coordinates":[-43.369805,-22.790968]}},{"type":"Feature","properties":{"municipio":"27a7784a-7a90-43b2-ab42-2633471d92f1","title":"RJ - RIO DE JANEIRO","name":"RJ - RIO DE JANEIRO","tipo":"Munic\u00edpio","url":"\/dashboard\/details-assets\/27a7784a-7a90-43b2-ab42-2633471d92f1"},"geometry":{"type":"Point","coordinates":[-43.209229,-22.916026]}},{"type":"Feature","properties":{"municipio":"812f5763-3e8f-4b6a-9de4-3a98478c0794","title":"RJ - SAO GONCALO","name":"RJ - SAO GONCALO","tipo":"Munic\u00edpio","url":"\/dashboard\/details-assets\/812f5763-3e8f-4b6a-9de4-3a98478c0794"},"geometry":{"type":"Point","coordinates":[-43.063765,-22.827288]}},{"type":"Feature","properties":{"municipio":"8594e7c0-7e24-4ccd-9a52-f85f8b763ed0","title":"RJ - PETROPOLIS","name":"RJ - PETROPOLIS","tipo":"Munic\u00edpio","url":"\/dashboard\/details-assets\/8594e7c0-7e24-4ccd-9a52-f85f8b763ed0"},"geometry":{"type":"Point","coordinates":[-43.177914,-22.511264]}},{"type":"Feature","properties":{"municipio":"f0a7c41a-c2e8-44d7-bd9f-f98fc5444c1a","title":"RJ - NOVA IGUACU","name":"RJ - NOVA IGUACU","tipo":"Munic\u00edpio","url":"\/dashboard\/details-assets\/f0a7c41a-c2e8-44d7-bd9f-f98fc5444c1a"},"geometry":{"type":"Point","coordinates":[-43.460742,-22.756132]}},{"type":"Feature","properties":{"municipio":"7d74cbee-0a65-4c9c-bcb6-9932d2bed44c","title":"RJ - NITEROI","name":"RJ - NITEROI","tipo":"Munic\u00edpio","url":"\/dashboard\/details-assets\/7d74cbee-0a65-4c9c-bcb6-9932d2bed44c"},"geometry":{"type":"Point","coordinates":[-43.115221,-22.885898]}},{"type":"Feature","properties":{"municipio":"42759d46-4ba2-426e-849c-27654f50b435","title":"RJ - CAMPOS DOS GOYTACAZES","name":"RJ - CAMPOS DOS GOYTACAZES","tipo":"Munic\u00edpio","url":"\/dashboard\/details-assets\/42759d46-4ba2-426e-849c-27654f50b435"},"geometry":{"type":"Point","coordinates":[-41.318488,-21.76269]}},{"type":"Feature","properties":{"municipio":"f8ab5608-f5ed-4219-b0ba-17e077243c70","title":"RJ - DUQUE DE CAXIAS","name":"RJ - DUQUE DE CAXIAS","tipo":"Munic\u00edpio","url":"\/dashboard\/details-assets\/f8ab5608-f5ed-4219-b0ba-17e077243c70"},"geometry":{"type":"Point","coordinates":[-43.305311,-22.786299]}},{"type":"Feature","properties":{"municipio":"58f488e6-3872-4f08-b717-7d037980abfd","title":"RJ - CABO FRIO","name":"RJ - CABO FRIO","tipo":"Munic\u00edpio","url":"\/dashboard\/details-assets\/58f488e6-3872-4f08-b717-7d037980abfd"},"geometry":{"type":"Point","coordinates":[-42.026254,-22.886751]}},{"type":"Feature","properties":{"municipio":"510ebaa5-2eb5-4668-8562-e1bff5c75974","title":"RJ - BELFORD ROXO","name":"RJ - BELFORD ROXO","tipo":"Munic\u00edpio","url":"\/dashboard\/details-assets\/510ebaa5-2eb5-4668-8562-e1bff5c75974"},"geometry":{"type":"Point","coordinates":[-43.399626,-22.764539]}},{"type":"Feature","properties":{"municipio":"c1ef3de0-e44a-4632-926a-e8b39d8fa725","title":"PI - TERESINA","name":"PI - TERESINA","tipo":"Munic\u00edpio","url":"\/dashboard\/details-assets\/c1ef3de0-e44a-4632-926a-e8b39d8fa725"},"geometry":{"type":"Point","coordinates":[-42.80527,-5.086342]}},{"type":"Feature","properties":{"municipio":"2306dc4c-c4aa-4e67-a8cc-f4d7cbd362f0","title":"PI - SAO RAIMUNDO NONATO","name":"PI - SAO RAIMUNDO NONATO","tipo":"Munic\u00edpio","url":"\/dashboard\/details-assets\/2306dc4c-c4aa-4e67-a8cc-f4d7cbd362f0"},"geometry":{"type":"Point","coordinates":[-42.692285,-9.01536]}},{"type":"Feature","properties":{"municipio":"acb709c6-fe1b-4a72-a7e3-265d123c97f6","title":"PI - PICOS","name":"PI - PICOS","tipo":"Munic\u00edpio","url":"\/dashboard\/details-assets\/acb709c6-fe1b-4a72-a7e3-265d123c97f6"},"geometry":{"type":"Point","coordinates":[-41.468827,-7.081374]}},{"type":"Feature","properties":{"municipio":"40010049-870d-4342-a8c9-42ff138fc2ea","title":"PI - FLORIANO","name":"PI - FLORIANO","tipo":"Munic\u00edpio","url":"\/dashboard\/details-assets\/40010049-870d-4342-a8c9-42ff138fc2ea"},"geometry":{"type":"Point","coordinates":[-43.020645,-6.769672]}},{"type":"Feature","properties":{"municipio":"102f3b0a-4d63-4ff2-8640-6c20691bf3ef","title":"PI - PARNAIBA","name":"PI - PARNAIBA","tipo":"Munic\u00edpio","url":"\/dashboard\/details-assets\/102f3b0a-4d63-4ff2-8640-6c20691bf3ef"},"geometry":{"type":"Point","coordinates":[-41.778171,-2.90336]}},{"type":"Feature","properties":{"municipio":"63303467-4305-429f-a106-c1755f8cfb61","title":"PI - CORRENTE","name":"PI - CORRENTE","tipo":"Munic\u00edpio","url":"\/dashboard\/details-assets\/63303467-4305-429f-a106-c1755f8cfb61"},"geometry":{"type":"Point","coordinates":[-45.163313,-10.440936]}},{"type":"Feature","properties":{"municipio":"e8e11a88-39e3-4ae0-9314-ff0dce2673e2","title":"PI - BOM JESUS","name":"PI - BOM JESUS","tipo":"Munic\u00edpio","url":"\/dashboard\/details-assets\/e8e11a88-39e3-4ae0-9314-ff0dce2673e2"},"geometry":{"type":"Point","coordinates":[-44.357392,-9.074637]}},{"type":"Feature","properties":{"municipio":"fa9bada3-9e39-43d4-8ad3-ebf7164c0a4e","title":"PE - SERRA TALHADA","name":"PE - SERRA TALHADA","tipo":"Munic\u00edpio","url":"\/dashboard\/details-assets\/fa9bada3-9e39-43d4-8ad3-ebf7164c0a4e"},"geometry":{"type":"Point","coordinates":[-38.296315,-7.987998]}},{"type":"Feature","properties":{"municipio":"095ca8dc-a543-471b-8dfc-07a3980c5dc4","title":"PE - RECIFE","name":"PE - RECIFE","tipo":"Munic\u00edpio","url":"\/dashboard\/details-assets\/095ca8dc-a543-471b-8dfc-07a3980c5dc4"},"geometry":{"type":"Point","coordinates":[-34.888942,-8.062762]}},{"type":"Feature","properties":{"municipio":"9a47e171-11b8-46ce-a86a-15ad61591225","title":"PE - OLINDA","name":"PE - OLINDA","tipo":"Munic\u00edpio","url":"\/dashboard\/details-assets\/9a47e171-11b8-46ce-a86a-15ad61591225"},"geometry":{"type":"Point","coordinates":[-34.86131,-7.99266]}},{"type":"Feature","properties":{"municipio":"62e68e04-a65e-4d98-bec0-13e71879554b","title":"PE - PETROLINA","name":"PE - PETROLINA","tipo":"Munic\u00edpio","url":"\/dashboard\/details-assets\/62e68e04-a65e-4d98-bec0-13e71879554b"},"geometry":{"type":"Point","coordinates":[-40.499999,-9.397376]}},{"type":"Feature","properties":{"municipio":"6c48e7f8-e096-42bc-8e97-4c011ed20241","title":"PE - JABOATAO DOS GUARARAPES","name":"PE - JABOATAO DOS GUARARAPES","tipo":"Munic\u00edpio","url":"\/dashboard\/details-assets\/6c48e7f8-e096-42bc-8e97-4c011ed20241"},"geometry":{"type":"Point","coordinates":[-34.921173,-8.165391]}},{"type":"Feature","properties":{"municipio":"29f76fd2-59b9-445b-b9d7-44914690fbe2","title":"PE - GARANHUNS","name":"PE - GARANHUNS","tipo":"Munic\u00edpio","url":"\/dashboard\/details-assets\/29f76fd2-59b9-445b-b9d7-44914690fbe2"},"geometry":{"type":"Point","coordinates":[-36.49305,-8.888906]}},{"type":"Feature","properties":{"municipio":"a4baa6f5-bb47-4f5e-a453-b4cf27f2f2ec","title":"PE - CARUARU","name":"PE - CARUARU","tipo":"Munic\u00edpio","url":"\/dashboard\/details-assets\/a4baa6f5-bb47-4f5e-a453-b4cf27f2f2ec"},"geometry":{"type":"Point","coordinates":[-35.967073,-8.285898]}},{"type":"Feature","properties":{"municipio":"0a3e85ed-ea67-429d-959f-fbba55138277","title":"PR - SAO JOSE DOS PINHAIS","name":"PR - SAO JOSE DOS PINHAIS","tipo":"Munic\u00edpio","url":"\/dashboard\/details-assets\/0a3e85ed-ea67-429d-959f-fbba55138277"},"geometry":{"type":"Point","coordinates":[-53.725613,-26.074187]}},{"type":"Feature","properties":{"municipio":"6bbb8c24-e1cc-4aa8-84ab-5c495963265a","title":"PR - UMUARAMA","name":"PR - UMUARAMA","tipo":"Munic\u00edpio","url":"\/dashboard\/details-assets\/6bbb8c24-e1cc-4aa8-84ab-5c495963265a"},"geometry":{"type":"Point","coordinates":[-53.30846,-23.76395]}},{"type":"Feature","properties":{"municipio":"798bb0bc-107c-4a97-8b2b-443ca21e9d2b","title":"PR - PONTA GROSSA","name":"PR - PONTA GROSSA","tipo":"Munic\u00edpio","url":"\/dashboard\/details-assets\/798bb0bc-107c-4a97-8b2b-443ca21e9d2b"},"geometry":{"type":"Point","coordinates":[-50.161442,-25.092547]}},{"type":"Feature","properties":{"municipio":"671dafd9-5706-4853-81d5-8c289feaaf30","title":"PR - PARANAGUA","name":"PR - PARANAGUA","tipo":"Munic\u00edpio","url":"\/dashboard\/details-assets\/671dafd9-5706-4853-81d5-8c289feaaf30"},"geometry":{"type":"Point","coordinates":[-48.524733,-25.506841]}},{"type":"Feature","properties":{"municipio":"8771488c-2bbc-4408-9c04-38e0089788fb","title":"PR - MARINGA","name":"PR - MARINGA","tipo":"Munic\u00edpio","url":"\/dashboard\/details-assets\/8771488c-2bbc-4408-9c04-38e0089788fb"},"geometry":{"type":"Point","coordinates":[-51.939882,-23.42228]}},{"type":"Feature","properties":{"municipio":"e0ccf900-2ce8-4e8d-8c80-df94bc76522b","title":"PR - LONDRINA","name":"PR - LONDRINA","tipo":"Munic\u00edpio","url":"\/dashboard\/details-assets\/e0ccf900-2ce8-4e8d-8c80-df94bc76522b"},"geometry":{"type":"Point","coordinates":[-51.162773,-23.312156]}},{"type":"Feature","properties":{"municipio":"5ee38cca-75bd-48e6-8bd0-195875a59502","title":"PR - GUARAPUAVA","name":"PR - GUARAPUAVA","tipo":"Munic\u00edpio","url":"\/dashboard\/details-assets\/5ee38cca-75bd-48e6-8bd0-195875a59502"},"geometry":{"type":"Point","coordinates":[-51.463431,-25.393592]}},{"type":"Feature","properties":{"municipio":"aae186fa-a959-40b3-9904-a0f54e2ef18e","title":"PR - CASCAVEL","name":"PR - CASCAVEL","tipo":"Munic\u00edpio","url":"\/dashboard\/details-assets\/aae186fa-a959-40b3-9904-a0f54e2ef18e"},"geometry":{"type":"Point","coordinates":[-53.459511,-24.957777]}},{"type":"Feature","properties":{"municipio":"6bb69c24-52e0-4cc4-ac13-70342427e39d","title":"PR - CURITIBA","name":"PR - CURITIBA","tipo":"Munic\u00edpio","url":"\/dashboard\/details-assets\/6bb69c24-52e0-4cc4-ac13-70342427e39d"},"geometry":{"type":"Point","coordinates":[-49.271848,-25.432956]}},{"type":"Feature","properties":{"municipio":"461b2e1e-a00c-4699-924f-fe2dd4205087","title":"PB - SOUSA","name":"PB - SOUSA","tipo":"Munic\u00edpio","url":"\/dashboard\/details-assets\/461b2e1e-a00c-4699-924f-fe2dd4205087"},"geometry":{"type":"Point","coordinates":[-38.229605,-6.763378]}},{"type":"Feature","properties":{"municipio":"4d809bcf-e4d5-424f-8f33-6bb27f7575e6","title":"PB - PATOS","name":"PB - PATOS","tipo":"Munic\u00edpio","url":"\/dashboard\/details-assets\/4d809bcf-e4d5-424f-8f33-6bb27f7575e6"},"geometry":{"type":"Point","coordinates":[-37.276913,-7.024492]}},{"type":"Feature","properties":{"municipio":"2f886d95-4b06-4c94-9c85-bd2813fb1760","title":"PB - JOAO PESSOA","name":"PB - JOAO PESSOA","tipo":"Munic\u00edpio","url":"\/dashboard\/details-assets\/2f886d95-4b06-4c94-9c85-bd2813fb1760"},"geometry":{"type":"Point","coordinates":[-34.873385,-7.149382]}},{"type":"Feature","properties":{"municipio":"eb4aec93-e561-4e2e-8e40-734b9e3d6975","title":"PB - CAMPINA GRANDE","name":"PB - CAMPINA GRANDE","tipo":"Munic\u00edpio","url":"\/dashboard\/details-assets\/eb4aec93-e561-4e2e-8e40-734b9e3d6975"},"geometry":{"type":"Point","coordinates":[-35.883859,-7.221497]}},{"type":"Feature","properties":{"municipio":"38f98ac6-4971-4382-b978-5208343b0794","title":"PA - SAO FELIX DO XINGU","name":"PA - SAO FELIX DO XINGU","tipo":"Munic\u00edpio","url":"\/dashboard\/details-assets\/38f98ac6-4971-4382-b978-5208343b0794"},"geometry":{"type":"Point","coordinates":[-51.993783,-6.642483]}},{"type":"Feature","properties":{"municipio":"f9bbd15d-9e08-437b-8c65-65e326d06854","title":"PA - TUCURUI","name":"PA - TUCURUI","tipo":"Munic\u00edpio","url":"\/dashboard\/details-assets\/f9bbd15d-9e08-437b-8c65-65e326d06854"},"geometry":{"type":"Point","coordinates":[-49.667184,-3.766889]}},{"type":"Feature","properties":{"municipio":"7cb1a438-68c8-4421-a831-483eeba27658","title":"PA - SANTAREM","name":"PA - SANTAREM","tipo":"Munic\u00edpio","url":"\/dashboard\/details-assets\/7cb1a438-68c8-4421-a831-483eeba27658"},"geometry":{"type":"Point","coordinates":[-54.71857,-2.436213]}},{"type":"Feature","properties":{"municipio":"dbf2597f-f492-4631-bf0f-6c5438527f3d","title":"PA - REDENCAO","name":"PA - REDENCAO","tipo":"Munic\u00edpio","url":"\/dashboard\/details-assets\/dbf2597f-f492-4631-bf0f-6c5438527f3d"},"geometry":{"type":"Point","coordinates":[-50.029642,-8.027604]}},{"type":"Feature","properties":{"municipio":"3844e061-8329-42df-a683-4b447068afb4","title":"PA - SANTANA DO ARAGUAIA","name":"PA - SANTANA DO ARAGUAIA","tipo":"Munic\u00edpio","url":"\/dashboard\/details-assets\/3844e061-8329-42df-a683-4b447068afb4"},"geometry":{"type":"Point","coordinates":[-50.341385,-9.336623]}},{"type":"Feature","properties":{"municipio":"6fbda779-263c-4bb4-8fbe-ff6ba39fedd5","title":"PA - PARAUAPEBAS","name":"PA - PARAUAPEBAS","tipo":"Munic\u00edpio","url":"\/dashboard\/details-assets\/6fbda779-263c-4bb4-8fbe-ff6ba39fedd5"},"geometry":{"type":"Point","coordinates":[-49.900781,-6.07273]}},{"type":"Feature","properties":{"municipio":"03123d2b-1cc1-4c3b-9a16-22d3708357b3","title":"PA - ORIXIMINA","name":"PA - ORIXIMINA","tipo":"Munic\u00edpio","url":"\/dashboard\/details-assets\/03123d2b-1cc1-4c3b-9a16-22d3708357b3"},"geometry":{"type":"Point","coordinates":[-55.8628,-1.763753]}},{"type":"Feature","properties":{"municipio":"72859a9b-f6f9-485d-b6c7-a5e87842e9c1","title":"PA - PARAGOMINAS","name":"PA - PARAGOMINAS","tipo":"Munic\u00edpio","url":"\/dashboard\/details-assets\/72859a9b-f6f9-485d-b6c7-a5e87842e9c1"},"geometry":{"type":"Point","coordinates":[-47.356962,-2.99419]}},{"type":"Feature","properties":{"municipio":"b95edfcb-a959-41b4-a144-c00e12d82aa7","title":"PA - MONTE ALEGRE","name":"PA - MONTE ALEGRE","tipo":"Munic\u00edpio","url":"\/dashboard\/details-assets\/b95edfcb-a959-41b4-a144-c00e12d82aa7"},"geometry":{"type":"Point","coordinates":[-54.073375,-2.003328]}},{"type":"Feature","properties":{"municipio":"63a226cc-9aa3-48b6-878c-03281b2deaee","title":"PA - MARABA","name":"PA - MARABA","tipo":"Munic\u00edpio","url":"\/dashboard\/details-assets\/63a226cc-9aa3-48b6-878c-03281b2deaee"},"geometry":{"type":"Point","coordinates":[-49.142025,-5.352606]}},{"type":"Feature","properties":{"municipio":"c0ca0b59-0ca4-4ba5-a776-8d023e764a62","title":"PA - ITAITUBA","name":"PA - ITAITUBA","tipo":"Munic\u00edpio","url":"\/dashboard\/details-assets\/c0ca0b59-0ca4-4ba5-a776-8d023e764a62"},"geometry":{"type":"Point","coordinates":[-55.990049,-4.263729]}},{"type":"Feature","properties":{"municipio":"92d1c0e3-7e9a-41f9-bdd1-ef4c9c8fad67","title":"PA - CAMETA","name":"PA - CAMETA","tipo":"Munic\u00edpio","url":"\/dashboard\/details-assets\/92d1c0e3-7e9a-41f9-bdd1-ef4c9c8fad67"},"geometry":{"type":"Point","coordinates":[-49.49783,-2.246838]}},{"type":"Feature","properties":{"municipio":"5874b027-2c71-45bf-942c-041c131b2fe2","title":"PA - BREVES","name":"PA - BREVES","tipo":"Munic\u00edpio","url":"\/dashboard\/details-assets\/5874b027-2c71-45bf-942c-041c131b2fe2"},"geometry":{"type":"Point","coordinates":[-50.480895,-1.690736]}},{"type":"Feature","properties":{"municipio":"80255adb-9a5d-4ed8-bc29-66befc1a41b2","title":"PA - BRAGANCA","name":"PA - BRAGANCA","tipo":"Munic\u00edpio","url":"\/dashboard\/details-assets\/80255adb-9a5d-4ed8-bc29-66befc1a41b2"},"geometry":{"type":"Point","coordinates":[-46.765754,-1.053524]}},{"type":"Feature","properties":{"municipio":"12201a55-8692-4343-bc37-e9c3f7e28be9","title":"PA - BELEM","name":"PA - BELEM","tipo":"Munic\u00edpio","url":"\/dashboard\/details-assets\/12201a55-8692-4343-bc37-e9c3f7e28be9"},"geometry":{"type":"Point","coordinates":[-48.487826,-1.459845]}},{"type":"Feature","properties":{"municipio":"caa0216a-2593-4967-8d1c-c67d779cdb1d","title":"PA - ANANINDEUA","name":"PA - ANANINDEUA","tipo":"Munic\u00edpio","url":"\/dashboard\/details-assets\/caa0216a-2593-4967-8d1c-c67d779cdb1d"},"geometry":{"type":"Point","coordinates":[-48.372067,-1.368714]}},{"type":"Feature","properties":{"municipio":"a61481bb-05ef-4b62-9257-f6782e87b972","title":"PA - ALTAMIRA","name":"PA - ALTAMIRA","tipo":"Munic\u00edpio","url":"\/dashboard\/details-assets\/a61481bb-05ef-4b62-9257-f6782e87b972"},"geometry":{"type":"Point","coordinates":[-52.214376,-3.20566]}},{"type":"Feature","properties":{"municipio":"d74c5978-a791-40c2-b62b-71dadf8606d1","title":"MG - UBERABA","name":"MG - UBERABA","tipo":"Munic\u00edpio","url":"\/dashboard\/details-assets\/d74c5978-a791-40c2-b62b-71dadf8606d1"},"geometry":{"type":"Point","coordinates":[-47.983625,-19.713535]}},{"type":"Feature","properties":{"municipio":"88b4742a-d54c-4ad2-982e-ba24edd96289","title":"MG - UBERLANDIA","name":"MG - UBERLANDIA","tipo":"Munic\u00edpio","url":"\/dashboard\/details-assets\/88b4742a-d54c-4ad2-982e-ba24edd96289"},"geometry":{"type":"Point","coordinates":[-48.27795,-18.918999]}},{"type":"Feature","properties":{"municipio":"d619d890-5106-48c3-8ea3-02c61cf74ac5","title":"MG - TEOFILO OTONI","name":"MG - TEOFILO OTONI","tipo":"Munic\u00edpio","url":"\/dashboard\/details-assets\/d619d890-5106-48c3-8ea3-02c61cf74ac5"},"geometry":{"type":"Point","coordinates":[-41.509635,-17.86254]}},{"type":"Feature","properties":{"municipio":"7745753d-f56d-42db-82d4-d62f4c492665","title":"MG - PATOS DE MINAS","name":"MG - PATOS DE MINAS","tipo":"Munic\u00edpio","url":"\/dashboard\/details-assets\/7745753d-f56d-42db-82d4-d62f4c492665"},"geometry":{"type":"Point","coordinates":[-46.515916,-18.592571]}},{"type":"Feature","properties":{"municipio":"f06af765-b55f-41fc-86bd-699a48d67400","title":"MG - PIRAPORA","name":"MG - PIRAPORA","tipo":"Munic\u00edpio","url":"\/dashboard\/details-assets\/f06af765-b55f-41fc-86bd-699a48d67400"},"geometry":{"type":"Point","coordinates":[-44.951065,-17.349582]}},{"type":"Feature","properties":{"municipio":"fb33cb5a-89d7-4f4a-be12-52b89816084e","title":"MG - PASSOS","name":"MG - PASSOS","tipo":"Munic\u00edpio","url":"\/dashboard\/details-assets\/fb33cb5a-89d7-4f4a-be12-52b89816084e"},"geometry":{"type":"Point","coordinates":[-46.611413,-20.719212]}},{"type":"Feature","properties":{"municipio":"3437406a-b95e-42ae-9b13-3cf5af4d70d8","title":"MG - PARACATU","name":"MG - PARACATU","tipo":"Munic\u00edpio","url":"\/dashboard\/details-assets\/3437406a-b95e-42ae-9b13-3cf5af4d70d8"},"geometry":{"type":"Point","coordinates":[-46.875419,-17.219742]}},{"type":"Feature","properties":{"municipio":"90881ceb-7d11-4e7e-bfe3-5b695701ab4c","title":"MG - MURIAE","name":"MG - MURIAE","tipo":"Munic\u00edpio","url":"\/dashboard\/details-assets\/90881ceb-7d11-4e7e-bfe3-5b695701ab4c"},"geometry":{"type":"Point","coordinates":[-42.361075,-21.132047]}},{"type":"Feature","properties":{"municipio":"74d077df-1f9b-4e44-b5d6-2823418a10ed","title":"MG - MONTES CLAROS","name":"MG - MONTES CLAROS","tipo":"Munic\u00edpio","url":"\/dashboard\/details-assets\/74d077df-1f9b-4e44-b5d6-2823418a10ed"},"geometry":{"type":"Point","coordinates":[-43.865422,-16.722707]}},{"type":"Feature","properties":{"municipio":"5b002cbb-489f-4bed-ac8e-38290c3d3d26","title":"MG - JUIZ DE FORA","name":"MG - JUIZ DE FORA","tipo":"Munic\u00edpio","url":"\/dashboard\/details-assets\/5b002cbb-489f-4bed-ac8e-38290c3d3d26"},"geometry":{"type":"Point","coordinates":[-43.348817,-21.760924]}},{"type":"Feature","properties":{"municipio":"8cab7467-bbad-412c-8c60-cd8deebbf872","title":"MG - LAVRAS","name":"MG - LAVRAS","tipo":"Munic\u00edpio","url":"\/dashboard\/details-assets\/8cab7467-bbad-412c-8c60-cd8deebbf872"},"geometry":{"type":"Point","coordinates":[-44.999931,-21.24287]}},{"type":"Feature","properties":{"municipio":"cd8a1c17-f6ad-4404-99bd-555860dc7eb9","title":"MG - JANUARIA","name":"MG - JANUARIA","tipo":"Munic\u00edpio","url":"\/dashboard\/details-assets\/cd8a1c17-f6ad-4404-99bd-555860dc7eb9"},"geometry":{"type":"Point","coordinates":[-44.359805,-15.487873]}},{"type":"Feature","properties":{"municipio":"22048f1c-c208-4a69-9642-3369e2b42adf","title":"MG - JANAUBA","name":"MG - JANAUBA","tipo":"Munic\u00edpio","url":"\/dashboard\/details-assets\/22048f1c-c208-4a69-9642-3369e2b42adf"},"geometry":{"type":"Point","coordinates":[-43.307683,-15.799028]}},{"type":"Feature","properties":{"municipio":"791e325e-e667-4159-a72c-19905f5e4915","title":"MG - ITUIUTABA","name":"MG - ITUIUTABA","tipo":"Munic\u00edpio","url":"\/dashboard\/details-assets\/791e325e-e667-4159-a72c-19905f5e4915"},"geometry":{"type":"Point","coordinates":[-49.462235,-18.973068]}},{"type":"Feature","properties":{"municipio":"d11acfc3-6735-4bae-9008-f1b2a44ea95b","title":"MG - ITAJUBA","name":"MG - ITAJUBA","tipo":"Munic\u00edpio","url":"\/dashboard\/details-assets\/d11acfc3-6735-4bae-9008-f1b2a44ea95b"},"geometry":{"type":"Point","coordinates":[-45.464583,-22.430601]}},{"type":"Feature","properties":{"municipio":"d8cedf1c-dff0-4750-a52a-02738ed692a8","title":"MG - IPATINGA","name":"MG - IPATINGA","tipo":"Munic\u00edpio","url":"\/dashboard\/details-assets\/d8cedf1c-dff0-4750-a52a-02738ed692a8"},"geometry":{"type":"Point","coordinates":[-42.520351,-19.481032]}},{"type":"Feature","properties":{"municipio":"ba7e0002-0fe1-4fbf-8d69-a2f6c89da63b","title":"MG - GOVERNADOR VALADARES","name":"MG - GOVERNADOR VALADARES","tipo":"Munic\u00edpio","url":"\/dashboard\/details-assets\/ba7e0002-0fe1-4fbf-8d69-a2f6c89da63b"},"geometry":{"type":"Point","coordinates":[-41.947081,-18.852882]}},{"type":"Feature","properties":{"municipio":"13f0bc54-9dbc-4fb3-b7c7-8d08fa3e2e7e","title":"MG - DIVINOPOLIS","name":"MG - DIVINOPOLIS","tipo":"Munic\u00edpio","url":"\/dashboard\/details-assets\/13f0bc54-9dbc-4fb3-b7c7-8d08fa3e2e7e"},"geometry":{"type":"Point","coordinates":[-44.893886,-20.142074]}},{"type":"Feature","properties":{"municipio":"e0ce4734-ebb2-45c1-a888-2b483e80d6fc","title":"MG - DIAMANTINA","name":"MG - DIAMANTINA","tipo":"Munic\u00edpio","url":"\/dashboard\/details-assets\/e0ce4734-ebb2-45c1-a888-2b483e80d6fc"},"geometry":{"type":"Point","coordinates":[-43.594457,-18.242093]}},{"type":"Feature","properties":{"municipio":"287f9703-6833-4497-bafb-9e97d3c009d8","title":"MG - CURVELO","name":"MG - CURVELO","tipo":"Munic\u00edpio","url":"\/dashboard\/details-assets\/287f9703-6833-4497-bafb-9e97d3c009d8"},"geometry":{"type":"Point","coordinates":[-44.428399,-18.755481]}},{"type":"Feature","properties":{"municipio":"92e09ead-4341-4c68-bc45-344949edb62a","title":"MG - BETIM","name":"MG - BETIM","tipo":"Munic\u00edpio","url":"\/dashboard\/details-assets\/92e09ead-4341-4c68-bc45-344949edb62a"},"geometry":{"type":"Point","coordinates":[-44.197551,-19.965379]}},{"type":"Feature","properties":{"municipio":"3aac8ba1-5ffa-448e-a4e0-d3d48d6c8369","title":"MG - CONTAGEM","name":"MG - CONTAGEM","tipo":"Munic\u00edpio","url":"\/dashboard\/details-assets\/3aac8ba1-5ffa-448e-a4e0-d3d48d6c8369"},"geometry":{"type":"Point","coordinates":[-44.066345,-19.943446]}},{"type":"Feature","properties":{"municipio":"1987fcbc-03a6-4fb5-92c9-31c471243147","title":"MG - BELO HORIZONTE","name":"MG - BELO HORIZONTE","tipo":"Munic\u00edpio","url":"\/dashboard\/details-assets\/1987fcbc-03a6-4fb5-92c9-31c471243147"},"geometry":{"type":"Point","coordinates":[-43.926453,-19.937524]}},{"type":"Feature","properties":{"municipio":"71e7b364-c40d-4090-950f-27112b124f7b","title":"MG - ARAXA","name":"MG - ARAXA","tipo":"Munic\u00edpio","url":"\/dashboard\/details-assets\/71e7b364-c40d-4090-950f-27112b124f7b"},"geometry":{"type":"Point","coordinates":[-46.94001,-19.59133]}},{"type":"Feature","properties":{"municipio":"3c8a4000-5e46-400e-8ad1-3c1cee0df6d6","title":"MG - ARACUAI","name":"MG - ARACUAI","tipo":"Munic\u00edpio","url":"\/dashboard\/details-assets\/3c8a4000-5e46-400e-8ad1-3c1cee0df6d6"},"geometry":{"type":"Point","coordinates":[-42.064207,-16.851781]}},{"type":"Feature","properties":{"municipio":"3e8685bb-9e94-4ab9-b96b-d6ff00ba2fe8","title":"MG - ALMENARA","name":"MG - ALMENARA","tipo":"Munic\u00edpio","url":"\/dashboard\/details-assets\/3e8685bb-9e94-4ab9-b96b-d6ff00ba2fe8"},"geometry":{"type":"Point","coordinates":[-40.697651,-16.180616]}},{"type":"Feature","properties":{"municipio":"19019499-77c4-4e3a-a181-856de80a27a8","title":"MS - TRES LAGOAS","name":"MS - TRES LAGOAS","tipo":"Munic\u00edpio","url":"\/dashboard\/details-assets\/19019499-77c4-4e3a-a181-856de80a27a8"},"geometry":{"type":"Point","coordinates":[-51.710001,-20.788679]}},{"type":"Feature","properties":{"municipio":"0d985b18-2daa-44e2-a2d3-6fc7e794b921","title":"MS - DOURADOS","name":"MS - DOURADOS","tipo":"Munic\u00edpio","url":"\/dashboard\/details-assets\/0d985b18-2daa-44e2-a2d3-6fc7e794b921"},"geometry":{"type":"Point","coordinates":[-54.811289,-22.227236]}},{"type":"Feature","properties":{"municipio":"ac2c820a-1a35-4c1b-94e1-13be0e2f3a26","title":"MS - CORUMBA","name":"MS - CORUMBA","tipo":"Munic\u00edpio","url":"\/dashboard\/details-assets\/ac2c820a-1a35-4c1b-94e1-13be0e2f3a26"},"geometry":{"type":"Point","coordinates":[-57.648985,-19.006375]}},{"type":"Feature","properties":{"municipio":"cebb89d2-1034-42ed-a4db-5bf457516693","title":"MS - CAMPO GRANDE","name":"MS - CAMPO GRANDE","tipo":"Munic\u00edpio","url":"\/dashboard\/details-assets\/cebb89d2-1034-42ed-a4db-5bf457516693"},"geometry":{"type":"Point","coordinates":[-54.615744,-20.45803]}},{"type":"Feature","properties":{"municipio":"6c940026-1fe0-4c0f-9e09-26815a52ad65","title":"MT - VARZEA GRANDE","name":"MT - VARZEA GRANDE","tipo":"Munic\u00edpio","url":"\/dashboard\/details-assets\/6c940026-1fe0-4c0f-9e09-26815a52ad65"},"geometry":{"type":"Point","coordinates":[-56.144664,-15.658065]}},{"type":"Feature","properties":{"municipio":"a594597f-fd28-4b90-9ea5-e8b760f8d287","title":"MT - TANGARA DA SERRA","name":"MT - TANGARA DA SERRA","tipo":"Munic\u00edpio","url":"\/dashboard\/details-assets\/a594597f-fd28-4b90-9ea5-e8b760f8d287"},"geometry":{"type":"Point","coordinates":[-57.491299,-14.623785]}},{"type":"Feature","properties":{"municipio":"03ce5fd1-e04d-460f-86fd-60353f005b98","title":"MT - SINOP","name":"MT - SINOP","tipo":"Munic\u00edpio","url":"\/dashboard\/details-assets\/03ce5fd1-e04d-460f-86fd-60353f005b98"},"geometry":{"type":"Point","coordinates":[-55.500922,-11.858005]}},{"type":"Feature","properties":{"municipio":"129bf442-e0bd-4df5-8eed-8a2b9f729598","title":"MT - RONDONOPOLIS","name":"MT - RONDONOPOLIS","tipo":"Munic\u00edpio","url":"\/dashboard\/details-assets\/129bf442-e0bd-4df5-8eed-8a2b9f729598"},"geometry":{"type":"Point","coordinates":[-54.633587,-16.470163]}},{"type":"Feature","properties":{"municipio":"262728cc-8e28-46ee-969f-9662acf009b6","title":"MT - CUIABA","name":"MT - CUIABA","tipo":"Munic\u00edpio","url":"\/dashboard\/details-assets\/262728cc-8e28-46ee-969f-9662acf009b6"},"geometry":{"type":"Point","coordinates":[-56.073252,-15.569989]}},{"type":"Feature","properties":{"municipio":"8e96b583-a466-44b4-b279-8f3695fe9e3a","title":"MT - CACERES","name":"MT - CACERES","tipo":"Munic\u00edpio","url":"\/dashboard\/details-assets\/8e96b583-a466-44b4-b279-8f3695fe9e3a"},"geometry":{"type":"Point","coordinates":[-57.674762,-16.074096]}},{"type":"Feature","properties":{"municipio":"acc1e9f7-eb8b-4227-adc9-40b868f00ea0","title":"MT - BARRA DO GARCAS","name":"MT - BARRA DO GARCAS","tipo":"Munic\u00edpio","url":"\/dashboard\/details-assets\/acc1e9f7-eb8b-4227-adc9-40b868f00ea0"},"geometry":{"type":"Point","coordinates":[-52.26033,-15.888711]}},{"type":"Feature","properties":{"municipio":"8471f9ef-4e07-417b-86e7-48bca964d8b6","title":"MT - ALTA FLORESTA","name":"MT - ALTA FLORESTA","tipo":"Munic\u00edpio","url":"\/dashboard\/details-assets\/8471f9ef-4e07-417b-86e7-48bca964d8b6"},"geometry":{"type":"Point","coordinates":[-56.09161,-9.871723]}},{"type":"Feature","properties":{"municipio":"b39b9d01-69ad-4c10-bcb3-08c0cd0de882","title":"MA - SAO LUIS","name":"MA - SAO LUIS","tipo":"Munic\u00edpio","url":"\/dashboard\/details-assets\/b39b9d01-69ad-4c10-bcb3-08c0cd0de882"},"geometry":{"type":"Point","coordinates":[-44.297919,-2.531886]}},{"type":"Feature","properties":{"municipio":"5256b1d7-6c8d-4b8f-a582-77736f8c24fd","title":"MA - SANTA INES","name":"MA - SANTA INES","tipo":"Munic\u00edpio","url":"\/dashboard\/details-assets\/5256b1d7-6c8d-4b8f-a582-77736f8c24fd"},"geometry":{"type":"Point","coordinates":[-45.383971,-3.664429]}},{"type":"Feature","properties":{"municipio":"b6dfa13f-966f-440b-940a-9fda39dd589a","title":"MA - PRESIDENTE DUTRA","name":"MA - PRESIDENTE DUTRA","tipo":"Munic\u00edpio","url":"\/dashboard\/details-assets\/b6dfa13f-966f-440b-940a-9fda39dd589a"},"geometry":{"type":"Point","coordinates":[-44.492919,-5.282374]}},{"type":"Feature","properties":{"municipio":"da15e7cf-7e6b-4409-b7b5-e522b8e6509c","title":"MA - IMPERATRIZ","name":"MA - IMPERATRIZ","tipo":"Munic\u00edpio","url":"\/dashboard\/details-assets\/da15e7cf-7e6b-4409-b7b5-e522b8e6509c"},"geometry":{"type":"Point","coordinates":[-47.479811,-5.526524]}},{"type":"Feature","properties":{"municipio":"13572495-87ad-4359-9b18-60734ea93a53","title":"MA - PINHEIRO","name":"MA - PINHEIRO","tipo":"Munic\u00edpio","url":"\/dashboard\/details-assets\/13572495-87ad-4359-9b18-60734ea93a53"},"geometry":{"type":"Point","coordinates":[-45.083927,-2.52274]}},{"type":"Feature","properties":{"municipio":"9e4c44b7-6550-452c-80c4-49af88255b62","title":"MA - CHAPADINHA","name":"MA - CHAPADINHA","tipo":"Munic\u00edpio","url":"\/dashboard\/details-assets\/9e4c44b7-6550-452c-80c4-49af88255b62"},"geometry":{"type":"Point","coordinates":[-43.361121,-3.740025]}},{"type":"Feature","properties":{"municipio":"ad1c5826-3edf-4c5d-a736-070e382294e3","title":"MA - BALSAS","name":"MA - BALSAS","tipo":"Munic\u00edpio","url":"\/dashboard\/details-assets\/ad1c5826-3edf-4c5d-a736-070e382294e3"},"geometry":{"type":"Point","coordinates":[-46.038993,-7.53117]}},{"type":"Feature","properties":{"municipio":"6920b6a6-6be8-408a-98d3-119e30ccc906","title":"MA - CAXIAS","name":"MA - CAXIAS","tipo":"Munic\u00edpio","url":"\/dashboard\/details-assets\/6920b6a6-6be8-408a-98d3-119e30ccc906"},"geometry":{"type":"Point","coordinates":[-43.358539,-4.861675]}},{"type":"Feature","properties":{"municipio":"227c1fd2-95ee-495f-98b9-b9f45bbbbe6a","title":"MA - BACABAL","name":"MA - BACABAL","tipo":"Munic\u00edpio","url":"\/dashboard\/details-assets\/227c1fd2-95ee-495f-98b9-b9f45bbbbe6a"},"geometry":{"type":"Point","coordinates":[-44.781556,-4.231525]}},{"type":"Feature","properties":{"municipio":"fa9c5aee-c1df-46c3-9728-02d97a36da9e","title":"GO - SANTO ANTONIO DO DESCOBERTO","name":"GO - SANTO ANTONIO DO DESCOBERTO","tipo":"Munic\u00edpio","url":"\/dashboard\/details-assets\/fa9c5aee-c1df-46c3-9728-02d97a36da9e"},"geometry":{"type":"Point","coordinates":[-48.256006,-15.944224]}},{"type":"Feature","properties":{"municipio":"a82cfe3c-e44c-430c-9513-90f1830e485b","title":"GO - VALPARAISO DE GOIAS","name":"GO - VALPARAISO DE GOIAS","tipo":"Munic\u00edpio","url":"\/dashboard\/details-assets\/a82cfe3c-e44c-430c-9513-90f1830e485b"},"geometry":{"type":"Point","coordinates":[-47.976112,-16.06553]}},{"type":"Feature","properties":{"municipio":"142969fb-b623-4cf6-a879-cd57b885bfff","title":"GO - RIO VERDE","name":"GO - RIO VERDE","tipo":"Munic\u00edpio","url":"\/dashboard\/details-assets\/142969fb-b623-4cf6-a879-cd57b885bfff"},"geometry":{"type":"Point","coordinates":[-50.929681,-17.794543]}},{"type":"Feature","properties":{"municipio":"52e0e590-515e-47aa-b481-2869debb125f","title":"GO - PLANALTINA","name":"GO - PLANALTINA","tipo":"Munic\u00edpio","url":"\/dashboard\/details-assets\/52e0e590-515e-47aa-b481-2869debb125f"},"geometry":{"type":"Point","coordinates":[-47.614847,-15.45311]}},{"type":"Feature","properties":{"municipio":"84f28d37-5e47-4151-9d4b-14787619efca","title":"GO - PORANGATU","name":"GO - PORANGATU","tipo":"Munic\u00edpio","url":"\/dashboard\/details-assets\/84f28d37-5e47-4151-9d4b-14787619efca"},"geometry":{"type":"Point","coordinates":[-49.146226,-13.442186]}},{"type":"Feature","properties":{"municipio":"749ab178-089b-4774-abf7-eacafa4b7ea3","title":"GO - NOVO GAMA","name":"GO - NOVO GAMA","tipo":"Munic\u00edpio","url":"\/dashboard\/details-assets\/749ab178-089b-4774-abf7-eacafa4b7ea3"},"geometry":{"type":"Point","coordinates":[-48.037211,-16.056078]}},{"type":"Feature","properties":{"municipio":"97e08f5d-4f24-43c9-9881-0446d02814d2","title":"GO - LUZIANIA","name":"GO - LUZIANIA","tipo":"Munic\u00edpio","url":"\/dashboard\/details-assets\/97e08f5d-4f24-43c9-9881-0446d02814d2"},"geometry":{"type":"Point","coordinates":[-47.917822,-16.251468]}},{"type":"Feature","properties":{"municipio":"d93e44eb-8bc2-4b2a-a34d-67ac491ac4ef","title":"GO - MINEIROS","name":"GO - MINEIROS","tipo":"Munic\u00edpio","url":"\/dashboard\/details-assets\/d93e44eb-8bc2-4b2a-a34d-67ac491ac4ef"},"geometry":{"type":"Point","coordinates":[-52.554667,-17.566168]}},{"type":"Feature","properties":{"municipio":"824b3ffe-52dd-4e63-8759-1cfa783ccbe7","title":"GO - ITUMBIARA","name":"GO - ITUMBIARA","tipo":"Munic\u00edpio","url":"\/dashboard\/details-assets\/824b3ffe-52dd-4e63-8759-1cfa783ccbe7"},"geometry":{"type":"Point","coordinates":[-49.22087,-18.417682]}},{"type":"Feature","properties":{"municipio":"215ad9a6-33ff-4dd2-b867-219534fc6de0","title":"GO - GOIANIA","name":"GO - GOIANIA","tipo":"Munic\u00edpio","url":"\/dashboard\/details-assets\/215ad9a6-33ff-4dd2-b867-219534fc6de0"},"geometry":{"type":"Point","coordinates":[-49.255814,-16.67331]}},{"type":"Feature","properties":{"municipio":"ebca98aa-2fc0-4381-8a05-757996dcc6e4","title":"GO - IPORA","name":"GO - IPORA","tipo":"Munic\u00edpio","url":"\/dashboard\/details-assets\/ebca98aa-2fc0-4381-8a05-757996dcc6e4"},"geometry":{"type":"Point","coordinates":[-51.119595,-16.440003]}},{"type":"Feature","properties":{"municipio":"4d852abe-6178-4303-9f68-3a56472c5c10","title":"GO - GOIANESIA","name":"GO - GOIANESIA","tipo":"Munic\u00edpio","url":"\/dashboard\/details-assets\/4d852abe-6178-4303-9f68-3a56472c5c10"},"geometry":{"type":"Point","coordinates":[-49.11581,-15.322289]}},{"type":"Feature","properties":{"municipio":"c2a12cc0-22a3-446c-b26a-079367a1ff6f","title":"GO - FORMOSA","name":"GO - FORMOSA","tipo":"Munic\u00edpio","url":"\/dashboard\/details-assets\/c2a12cc0-22a3-446c-b26a-079367a1ff6f"},"geometry":{"type":"Point","coordinates":[-47.33743,-15.540441]}},{"type":"Feature","properties":{"municipio":"63d0d189-735d-4046-b078-2eee8d086990","title":"GO - CIDADE OCIDENTAL","name":"GO - CIDADE OCIDENTAL","tipo":"Munic\u00edpio","url":"\/dashboard\/details-assets\/63d0d189-735d-4046-b078-2eee8d086990"},"geometry":{"type":"Point","coordinates":[-47.937131,-16.110959]}},{"type":"Feature","properties":{"municipio":"a0c92115-5a37-4a2f-82ae-ec59999d3d3e","title":"GO - CATALAO","name":"GO - CATALAO","tipo":"Munic\u00edpio","url":"\/dashboard\/details-assets\/a0c92115-5a37-4a2f-82ae-ec59999d3d3e"},"geometry":{"type":"Point","coordinates":[-47.947703,-18.169573]}},{"type":"Feature","properties":{"municipio":"a5aca598-3920-427a-85af-3bd3461973d2","title":"GO - APARECIDA DE GOIANIA","name":"GO - APARECIDA DE GOIANIA","tipo":"Munic\u00edpio","url":"\/dashboard\/details-assets\/a5aca598-3920-427a-85af-3bd3461973d2"},"geometry":{"type":"Point","coordinates":[-49.243326,-16.822146]}},{"type":"Feature","properties":{"municipio":"a3f2023f-bac7-4c47-8a2a-dc0213a8fd65","title":"GO - AGUAS LINDAS DE GOIAS","name":"GO - AGUAS LINDAS DE GOIAS","tipo":"Munic\u00edpio","url":"\/dashboard\/details-assets\/a3f2023f-bac7-4c47-8a2a-dc0213a8fd65"},"geometry":{"type":"Point","coordinates":[-48.283444,-15.737939]}},{"type":"Feature","properties":{"municipio":"90620257-49d3-4078-b8f2-f50826697373","title":"ES - VILA VELHA","name":"ES - VILA VELHA","tipo":"Munic\u00edpio","url":"\/dashboard\/details-assets\/90620257-49d3-4078-b8f2-f50826697373"},"geometry":{"type":"Point","coordinates":[-40.293957,-20.338374]}},{"type":"Feature","properties":{"municipio":"f2b3833e-8e3b-42b4-9cdc-d4c6f4b50bfd","title":"ES - VITORIA","name":"ES - VITORIA","tipo":"Munic\u00edpio","url":"\/dashboard\/details-assets\/f2b3833e-8e3b-42b4-9cdc-d4c6f4b50bfd"},"geometry":{"type":"Point","coordinates":[-40.322209,-20.320154]}},{"type":"Feature","properties":{"municipio":"4275f7f7-068f-4d47-b8c0-10649a6dcb8a","title":"ES - SERRA","name":"ES - SERRA","tipo":"Munic\u00edpio","url":"\/dashboard\/details-assets\/4275f7f7-068f-4d47-b8c0-10649a6dcb8a"},"geometry":{"type":"Point","coordinates":[-40.275217,-20.15677]}},{"type":"Feature","properties":{"municipio":"0ec7468b-a760-410f-903e-6be20f132b87","title":"ES - COLATINA","name":"ES - COLATINA","tipo":"Munic\u00edpio","url":"\/dashboard\/details-assets\/0ec7468b-a760-410f-903e-6be20f132b87"},"geometry":{"type":"Point","coordinates":[-40.630318,-19.53627]}},{"type":"Feature","properties":{"municipio":"9fe21760-9b84-4e28-8199-3fbfb68e640d","title":"ES - SAO MATEUS","name":"ES - SAO MATEUS","tipo":"Munic\u00edpio","url":"\/dashboard\/details-assets\/9fe21760-9b84-4e28-8199-3fbfb68e640d"},"geometry":{"type":"Point","coordinates":[-39.856734,-18.719071]}},{"type":"Feature","properties":{"municipio":"922e21b2-dfa8-4270-ae65-c01bdc060564","title":"ES - CACHOEIRO DE ITAPEMIRIM","name":"ES - CACHOEIRO DE ITAPEMIRIM","tipo":"Munic\u00edpio","url":"\/dashboard\/details-assets\/922e21b2-dfa8-4270-ae65-c01bdc060564"},"geometry":{"type":"Point","coordinates":[-41.111919,-20.850112]}},{"type":"Feature","properties":{"municipio":"2c1954c9-fe4c-44a8-af52-9afa6cffde2d","title":"CE - SOBRAL","name":"CE - SOBRAL","tipo":"Munic\u00edpio","url":"\/dashboard\/details-assets\/2c1954c9-fe4c-44a8-af52-9afa6cffde2d"},"geometry":{"type":"Point","coordinates":[-40.348668,-3.688038]}},{"type":"Feature","properties":{"municipio":"e6420848-8c83-478b-82e6-b519bbe01515","title":"CE - QUIXADA","name":"CE - QUIXADA","tipo":"Munic\u00edpio","url":"\/dashboard\/details-assets\/e6420848-8c83-478b-82e6-b519bbe01515"},"geometry":{"type":"Point","coordinates":[-39.011745,-4.9637]}},{"type":"Feature","properties":{"municipio":"994cf6b8-3b14-4975-9854-819b94d62060","title":"CE - MARACANAU","name":"CE - MARACANAU","tipo":"Munic\u00edpio","url":"\/dashboard\/details-assets\/994cf6b8-3b14-4975-9854-819b94d62060"},"geometry":{"type":"Point","coordinates":[-38.624419,-3.876964]}},{"type":"Feature","properties":{"municipio":"f18cd280-4317-4524-8b45-5fc9d6b6e71b","title":"CE - JUAZEIRO DO NORTE","name":"CE - JUAZEIRO DO NORTE","tipo":"Munic\u00edpio","url":"\/dashboard\/details-assets\/f18cd280-4317-4524-8b45-5fc9d6b6e71b"},"geometry":{"type":"Point","coordinates":[-39.316993,-7.210766]}},{"type":"Feature","properties":{"municipio":"bb3670c4-2a5d-4a56-bab0-41f930bf3be2","title":"CE - IGUATU","name":"CE - IGUATU","tipo":"Munic\u00edpio","url":"\/dashboard\/details-assets\/bb3670c4-2a5d-4a56-bab0-41f930bf3be2"},"geometry":{"type":"Point","coordinates":[-39.305756,-6.336455]}},{"type":"Feature","properties":{"municipio":"07bc3906-943b-4840-9dcd-508d80437d06","title":"CE - CRATEUS","name":"CE - CRATEUS","tipo":"Munic\u00edpio","url":"\/dashboard\/details-assets\/07bc3906-943b-4840-9dcd-508d80437d06"},"geometry":{"type":"Point","coordinates":[-40.6684,-5.176951]}},{"type":"Feature","properties":{"municipio":"3ff39068-3e9f-4f53-9c42-c888712e2713","title":"CE - FORTALEZA","name":"CE - FORTALEZA","tipo":"Munic\u00edpio","url":"\/dashboard\/details-assets\/3ff39068-3e9f-4f53-9c42-c888712e2713"},"geometry":{"type":"Point","coordinates":[-38.589928,-3.723805]}},{"type":"Feature","properties":{"municipio":"8021e329-9716-42eb-9b10-8ac4b6d02544","title":"CE - CAUCAIA","name":"CE - CAUCAIA","tipo":"Munic\u00edpio","url":"\/dashboard\/details-assets\/8021e329-9716-42eb-9b10-8ac4b6d02544"},"geometry":{"type":"Point","coordinates":[-38.913231,-3.682405]}},{"type":"Feature","properties":{"municipio":"bfbb43d3-e2af-4450-b051-aebc62d13676","title":"BA - VITORIA DA CONQUISTA","name":"BA - VITORIA DA CONQUISTA","tipo":"Munic\u00edpio","url":"\/dashboard\/details-assets\/bfbb43d3-e2af-4450-b051-aebc62d13676"},"geometry":{"type":"Point","coordinates":[-40.83981,-14.848005]}},{"type":"Feature","properties":{"municipio":"4bfd05ce-4c61-448d-9566-030875f3c425","title":"BA - TEIXEIRA DE FREITAS","name":"BA - TEIXEIRA DE FREITAS","tipo":"Munic\u00edpio","url":"\/dashboard\/details-assets\/4bfd05ce-4c61-448d-9566-030875f3c425"},"geometry":{"type":"Point","coordinates":[-39.744518,-17.53775]}},{"type":"Feature","properties":{"municipio":"7dab9b9c-c6d0-40d6-8914-fa245e2415d0","title":"BA - SALVADOR","name":"BA - SALVADOR","tipo":"Munic\u00edpio","url":"\/dashboard\/details-assets\/7dab9b9c-c6d0-40d6-8914-fa245e2415d0"},"geometry":{"type":"Point","coordinates":[-38.489434,-12.990687]}},{"type":"Feature","properties":{"municipio":"6a85ec0c-56de-4b65-a878-5f36ec6a7a1d","title":"BA - PAULO AFONSO","name":"BA - PAULO AFONSO","tipo":"Munic\u00edpio","url":"\/dashboard\/details-assets\/6a85ec0c-56de-4b65-a878-5f36ec6a7a1d"},"geometry":{"type":"Point","coordinates":[-38.218329,-9.403332]}},{"type":"Feature","properties":{"municipio":"58617dab-d7b2-4fa8-b1e1-8e77da418f84","title":"BA - RIBEIRA DO POMBAL","name":"BA - RIBEIRA DO POMBAL","tipo":"Munic\u00edpio","url":"\/dashboard\/details-assets\/58617dab-d7b2-4fa8-b1e1-8e77da418f84"},"geometry":{"type":"Point","coordinates":[-38.536099,-10.836278]}},{"type":"Feature","properties":{"municipio":"23ab01ee-e8f6-4fe1-a5fc-5c65ed6863c7","title":"BA - LAURO DE FREITAS","name":"BA - LAURO DE FREITAS","tipo":"Munic\u00edpio","url":"\/dashboard\/details-assets\/23ab01ee-e8f6-4fe1-a5fc-5c65ed6863c7"},"geometry":{"type":"Point","coordinates":[-38.323462,-12.896718]}},{"type":"Feature","properties":{"municipio":"50ad5d11-b752-4255-9a85-08ec9eb9083a","title":"BA - JACOBINA","name":"BA - JACOBINA","tipo":"Munic\u00edpio","url":"\/dashboard\/details-assets\/50ad5d11-b752-4255-9a85-08ec9eb9083a"},"geometry":{"type":"Point","coordinates":[-40.513018,-11.185062]}},{"type":"Feature","properties":{"municipio":"ad2ff9ae-8f54-4f21-90f2-8f593b43332f","title":"BA - JEQUIE","name":"BA - JEQUIE","tipo":"Munic\u00edpio","url":"\/dashboard\/details-assets\/ad2ff9ae-8f54-4f21-90f2-8f593b43332f"},"geometry":{"type":"Point","coordinates":[-40.088607,-13.855664]}},{"type":"Feature","properties":{"municipio":"ff3043da-955a-4384-abba-85ec7b6a852e","title":"BA - ITABERABA","name":"BA - ITABERABA","tipo":"Munic\u00edpio","url":"\/dashboard\/details-assets\/ff3043da-955a-4384-abba-85ec7b6a852e"},"geometry":{"type":"Point","coordinates":[-40.306995,-12.532254]}},{"type":"Feature","properties":{"municipio":"be201961-b87c-4f0b-8d23-45291115613a","title":"BA - ILHEUS","name":"BA - ILHEUS","tipo":"Munic\u00edpio","url":"\/dashboard\/details-assets\/be201961-b87c-4f0b-8d23-45291115613a"},"geometry":{"type":"Point","coordinates":[-39.043184,-14.79332]}},{"type":"Feature","properties":{"municipio":"196b6d50-1f08-4b23-8914-9f7ebbea8721","title":"BA - IRECE","name":"BA - IRECE","tipo":"Munic\u00edpio","url":"\/dashboard\/details-assets\/196b6d50-1f08-4b23-8914-9f7ebbea8721"},"geometry":{"type":"Point","coordinates":[-41.85886,-11.30338]}},{"type":"Feature","properties":{"municipio":"6bbd0d86-1ab0-46e8-8e66-709231220c41","title":"BA - GUANAMBI","name":"BA - GUANAMBI","tipo":"Munic\u00edpio","url":"\/dashboard\/details-assets\/6bbd0d86-1ab0-46e8-8e66-709231220c41"},"geometry":{"type":"Point","coordinates":[-42.778562,-14.225315]}},{"type":"Feature","properties":{"municipio":"3b2d709e-cb83-4714-85fb-4fd8c97ff1e3","title":"BA - FEIRA DE SANTANA","name":"BA - FEIRA DE SANTANA","tipo":"Munic\u00edpio","url":"\/dashboard\/details-assets\/3b2d709e-cb83-4714-85fb-4fd8c97ff1e3"},"geometry":{"type":"Point","coordinates":[-38.960033,-12.229284]}},{"type":"Feature","properties":{"municipio":"2b520414-a26b-478e-9cf7-672054f83e29","title":"BA - EUNAPOLIS","name":"BA - EUNAPOLIS","tipo":"Munic\u00edpio","url":"\/dashboard\/details-assets\/2b520414-a26b-478e-9cf7-672054f83e29"},"geometry":{"type":"Point","coordinates":[-39.584172,-16.375167]}},{"type":"Feature","properties":{"municipio":"22448563-5b7a-4148-b372-68634e504bba","title":"BA - BRUMADO","name":"BA - BRUMADO","tipo":"Munic\u00edpio","url":"\/dashboard\/details-assets\/22448563-5b7a-4148-b372-68634e504bba"},"geometry":{"type":"Point","coordinates":[-41.66707,-14.205438]}},{"type":"Feature","properties":{"municipio":"5186d006-20ef-486f-8d95-dd9127d570dd","title":"BA - CAMACARI","name":"BA - CAMACARI","tipo":"Munic\u00edpio","url":"\/dashboard\/details-assets\/5186d006-20ef-486f-8d95-dd9127d570dd"},"geometry":{"type":"Point","coordinates":[-38.32574,-12.698817]}},{"type":"Feature","properties":{"municipio":"466f000f-38d0-47ec-ac1a-da7655ede9c5","title":"BA - BOM JESUS DA LAPA","name":"BA - BOM JESUS DA LAPA","tipo":"Munic\u00edpio","url":"\/dashboard\/details-assets\/466f000f-38d0-47ec-ac1a-da7655ede9c5"},"geometry":{"type":"Point","coordinates":[-43.417142,-13.254114]}},{"type":"Feature","properties":{"municipio":"41dcdfea-55bc-4303-8063-d27c768cced0","title":"BA - BARREIRAS","name":"BA - BARREIRAS","tipo":"Munic\u00edpio","url":"\/dashboard\/details-assets\/41dcdfea-55bc-4303-8063-d27c768cced0"},"geometry":{"type":"Point","coordinates":[-45.004168,-12.144925]}},{"type":"Feature","properties":{"municipio":"a8d9feeb-32f4-4cf9-9ea3-0eef5ee0eb29","title":"AM - TEFE","name":"AM - TEFE","tipo":"Munic\u00edpio","url":"\/dashboard\/details-assets\/a8d9feeb-32f4-4cf9-9ea3-0eef5ee0eb29"},"geometry":{"type":"Point","coordinates":[-64.70842,-3.348372]}},{"type":"Feature","properties":{"municipio":"b40f90b7-8d88-4356-b0e8-3ff6108f00b7","title":"AM - TABATINGA","name":"AM - TABATINGA","tipo":"Munic\u00edpio","url":"\/dashboard\/details-assets\/b40f90b7-8d88-4356-b0e8-3ff6108f00b7"},"geometry":{"type":"Point","coordinates":[-69.946244,-4.231884]}},{"type":"Feature","properties":{"municipio":"bbe4131e-73da-4ab8-8306-6930e5705dd3","title":"AM - SAO GABRIEL DA CACHOEIRA","name":"AM - SAO GABRIEL DA CACHOEIRA","tipo":"Munic\u00edpio","url":"\/dashboard\/details-assets\/bbe4131e-73da-4ab8-8306-6930e5705dd3"},"geometry":{"type":"Point","coordinates":[-67.083643,-0.136463]}},{"type":"Feature","properties":{"municipio":"04b66b47-1c04-46dc-af60-4cb29c02a456","title":"AM - PARINTINS","name":"AM - PARINTINS","tipo":"Munic\u00edpio","url":"\/dashboard\/details-assets\/04b66b47-1c04-46dc-af60-4cb29c02a456"},"geometry":{"type":"Point","coordinates":[-56.736292,-2.627053]}},{"type":"Feature","properties":{"municipio":"03288233-be0a-45d6-a047-05c6e8af4bd5","title":"AM - MANICORE","name":"AM - MANICORE","tipo":"Munic\u00edpio","url":"\/dashboard\/details-assets\/03288233-be0a-45d6-a047-05c6e8af4bd5"},"geometry":{"type":"Point","coordinates":[-61.299248,-5.813205]}},{"type":"Feature","properties":{"municipio":"faa19d08-dfc3-45cd-a717-64439bbc78dc","title":"AM - MANAUS","name":"AM - MANAUS","tipo":"Munic\u00edpio","url":"\/dashboard\/details-assets\/faa19d08-dfc3-45cd-a717-64439bbc78dc"},"geometry":{"type":"Point","coordinates":[-60.023335,-3.134691]}},{"type":"Feature","properties":{"municipio":"eba0c2f9-92d1-449b-ad18-fd09525d7faa","title":"AM - LABREA","name":"AM - LABREA","tipo":"Munic\u00edpio","url":"\/dashboard\/details-assets\/eba0c2f9-92d1-449b-ad18-fd09525d7faa"},"geometry":{"type":"Point","coordinates":[-64.794773,-7.261947]}},{"type":"Feature","properties":{"municipio":"7f30358d-37dd-46c4-8c89-771f1818e8f4","title":"AM - ITACOATIARA","name":"AM - ITACOATIARA","tipo":"Munic\u00edpio","url":"\/dashboard\/details-assets\/7f30358d-37dd-46c4-8c89-771f1818e8f4"},"geometry":{"type":"Point","coordinates":[-58.440175,-3.140379]}},{"type":"Feature","properties":{"municipio":"847f8c97-d09b-4988-9182-24bb02e94891","title":"AP - OIAPOQUE","name":"AP - OIAPOQUE","tipo":"Munic\u00edpio","url":"\/dashboard\/details-assets\/847f8c97-d09b-4988-9182-24bb02e94891"},"geometry":{"type":"Point","coordinates":[-51.832228,3.844121]}},{"type":"Feature","properties":{"municipio":"0e02b577-1c1c-4940-863d-bb879a471064","title":"AM - COARI","name":"AM - COARI","tipo":"Munic\u00edpio","url":"\/dashboard\/details-assets\/0e02b577-1c1c-4940-863d-bb879a471064"},"geometry":{"type":"Point","coordinates":[-63.142184,-4.084219]}},{"type":"Feature","properties":{"municipio":"87259d31-8544-4e7e-96cb-a034d659b157","title":"AP - MACAPA","name":"AP - MACAPA","tipo":"Munic\u00edpio","url":"\/dashboard\/details-assets\/87259d31-8544-4e7e-96cb-a034d659b157"},"geometry":{"type":"Point","coordinates":[-51.057405,0.038951]}},{"type":"Feature","properties":{"municipio":"c11d37df-0b40-4d7c-a738-2fb9b229fa4e","title":"AP - LARANJAL DO JARI","name":"AP - LARANJAL DO JARI","tipo":"Munic\u00edpio","url":"\/dashboard\/details-assets\/c11d37df-0b40-4d7c-a738-2fb9b229fa4e"},"geometry":{"type":"Point","coordinates":[-52.539021,-0.855664]}},{"type":"Feature","properties":{"municipio":"89400296-2b25-4277-ae4b-834af2f2385d","title":"AL - MACEIO","name":"AL - MACEIO","tipo":"Munic\u00edpio","url":"\/dashboard\/details-assets\/89400296-2b25-4277-ae4b-834af2f2385d"},"geometry":{"type":"Point","coordinates":[-35.70163,-9.660822]}},{"type":"Feature","properties":{"municipio":"71eb32f2-c10f-438b-bd9c-8f9932c8d26f","title":"AL - ARAPIRACA","name":"AL - ARAPIRACA","tipo":"Munic\u00edpio","url":"\/dashboard\/details-assets\/71eb32f2-c10f-438b-bd9c-8f9932c8d26f"},"geometry":{"type":"Point","coordinates":[-36.657297,-9.755907]}},{"type":"Feature","properties":{"municipio":"306cfcc0-1bd9-4600-8ba1-8fd73ad95b49","title":"AC - RIO BRANCO","name":"AC - RIO BRANCO","tipo":"Munic\u00edpio","url":"\/dashboard\/details-assets\/306cfcc0-1bd9-4600-8ba1-8fd73ad95b49"},"geometry":{"type":"Point","coordinates":[-67.829853,-9.973437]}},{"type":"Feature","properties":{"municipio":"2684983a-1c13-46bd-b906-5664fc52eb51","title":"AC - CRUZEIRO DO SUL","name":"AC - CRUZEIRO DO SUL","tipo":"Munic\u00edpio","url":"\/dashboard\/details-assets\/2684983a-1c13-46bd-b906-5664fc52eb51"},"geometry":{"type":"Point","coordinates":[-72.672531,-7.63069]}}]}